{
  "type": "FeatureCollection",
  "features": [
    {
      "type": "Feature",
      "properties": {
        "norad_id": 66537,
        "name": "STARLINK-35582",
        "group": "last-30-days",
        "lat": 29.966743726282406,
        "lon": 161.0767156344809,
        "alt_km": 409.28113306029536,
        "timestamp": "2025-12-18T15:47:09.958609+00:00",
        "meta_object_name": "STARLINK-35582",
        "meta_object_id": "2025-265X",
        "meta_epoch": "2025-12-18T02:51:03.621024",
        "meta_mean_motion": 15.50922723,
        "meta_eccentricity": 0.00089647,
        "meta_inclination": 42.9966,
        "meta_ra_of_asc_node": 22.462,
        "meta_arg_of_pericenter": 222.3935,
        "meta_mean_anomaly": 137.6234,
        "meta_ephemeris_type": 0,
        "meta_classification_type": "U",
        "meta_norad_cat_id": 66537,
        "meta_element_set_no": 999,
        "meta_rev_at_epoch": 459,
        "meta_bstar": 0.0017052486,
        "meta_mean_motion_dot": 0.00102406,
        "meta_mean_motion_ddot": 0,
        "tle_line1": "1 66537U 25265X   25352.11879191  .00102406  00000+0  17052-2 0  9990",
        "tle_line2": "2 66537  42.9966  22.4620 0008964 222.3935 137.6234 15.50922723  4594"
      },
      "geometry": {
        "type": "Point",
        "coordinates": [
          161.0767156344809,
          29.966743726282406
        ]
      }
    },
    {
      "type": "Feature",
      "properties": {
        "norad_id": 66538,
        "name": "STARLINK-35577",
        "group": "last-30-days",
        "lat": 29.394918574435117,
        "lon": 162.1082998031784,
        "alt_km": 410.36252022617646,
        "timestamp": "2025-12-18T15:47:09.958620+00:00",
        "meta_object_name": "STARLINK-35577",
        "meta_object_id": "2025-265Y",
        "meta_epoch": "2025-12-17T09:50:26.132352",
        "meta_mean_motion": 15.50591082,
        "meta_eccentricity": 0.00013928,
        "meta_inclination": 43.001,
        "meta_ra_of_asc_node": 26.6049,
        "meta_arg_of_pericenter": 263.8064,
        "meta_mean_anomaly": 96.2638,
        "meta_ephemeris_type": 0,
        "meta_classification_type": "U",
        "meta_norad_cat_id": 66538,
        "meta_element_set_no": 999,
        "meta_rev_at_epoch": 448,
        "meta_bstar": 0.0015140009,
        "meta_mean_motion_dot": 0.00089538,
        "meta_mean_motion_ddot": 0,
        "tle_line1": "1 66538U 25265Y   25351.41002468  .00089538  00000+0  15140-2 0  9994",
        "tle_line2": "2 66538  43.0010  26.6049 0001392 263.8064  96.2638 15.50591082  4485"
      },
      "geometry": {
        "type": "Point",
        "coordinates": [
          162.1082998031784,
          29.394918574435117
        ]
      }
    },
    {
      "type": "Feature",
      "properties": {
        "norad_id": 66539,
        "name": "STARLINK-35697",
        "group": "last-30-days",
        "lat": 28.592359526715708,
        "lon": 163.5061651729484,
        "alt_km": 410.5616753988852,
        "timestamp": "2025-12-18T15:47:09.958630+00:00",
        "meta_object_name": "STARLINK-35697",
        "meta_object_id": "2025-265Z",
        "meta_epoch": "2025-12-18T02:50:16.521792",
        "meta_mean_motion": 15.50598942,
        "meta_eccentricity": 7.542e-05,
        "meta_inclination": 42.9998,
        "meta_ra_of_asc_node": 22.4596,
        "meta_arg_of_pericenter": 259.3636,
        "meta_mean_anomaly": 100.714,
        "meta_ephemeris_type": 0,
        "meta_classification_type": "U",
        "meta_norad_cat_id": 66539,
        "meta_element_set_no": 999,
        "meta_rev_at_epoch": 459,
        "meta_bstar": 0.00097005248,
        "meta_mean_motion_dot": 0.00057022,
        "meta_mean_motion_ddot": 0,
        "tle_line1": "1 66539U 25265Z   25352.11824678  .00057022  00000+0  97005-3 0  9992",
        "tle_line2": "2 66539  42.9998  22.4596 0000754 259.3636 100.7140 15.50598942  4599"
      },
      "geometry": {
        "type": "Point",
        "coordinates": [
          163.5061651729484,
          28.592359526715708
        ]
      }
    },
    {
      "type": "Feature",
      "properties": {
        "norad_id": 66540,
        "name": "STARLINK-35818",
        "group": "last-30-days",
        "lat": 27.541386135234337,
        "lon": 165.2666039732202,
        "alt_km": 411.11970019087767,
        "timestamp": "2025-12-18T15:47:09.958642+00:00",
        "meta_object_name": "STARLINK-35818",
        "meta_object_id": "2025-265AA",
        "meta_epoch": "2025-12-18T02:49:47.888832",
        "meta_mean_motion": 15.50609715,
        "meta_eccentricity": 0.00014595,
        "meta_inclination": 42.9995,
        "meta_ra_of_asc_node": 22.4559,
        "meta_arg_of_pericenter": 275.939,
        "meta_mean_anomaly": 84.1304,
        "meta_ephemeris_type": 0,
        "meta_classification_type": "U",
        "meta_norad_cat_id": 66540,
        "meta_element_set_no": 999,
        "meta_rev_at_epoch": 459,
        "meta_bstar": 0.001229568,
        "meta_mean_motion_dot": 0.00072542,
        "meta_mean_motion_ddot": 0,
        "tle_line1": "1 66540U 25265AA  25352.11791538  .00072542  00000+0  12296-2 0  9994",
        "tle_line2": "2 66540  42.9995  22.4559 0001459 275.9390  84.1304 15.50609715  4599"
      },
      "geometry": {
        "type": "Point",
        "coordinates": [
          165.2666039732202,
          27.541386135234337
        ]
      }
    },
    {
      "type": "Feature",
      "properties": {
        "norad_id": 66541,
        "name": "STARLINK-35796",
        "group": "last-30-days",
        "lat": -22.649121646217786,
        "lon": -6.890724982128188,
        "alt_km": 445.8985230614999,
        "timestamp": "2025-12-18T15:47:09.958653+00:00",
        "meta_object_name": "STARLINK-35796",
        "meta_object_id": "2025-265AB",
        "meta_epoch": "2025-12-18T03:29:16.899072",
        "meta_mean_motion": 15.40721005,
        "meta_eccentricity": 0.00011485,
        "meta_inclination": 43,
        "meta_ra_of_asc_node": 22.6644,
        "meta_arg_of_pericenter": 243.5508,
        "meta_mean_anomaly": 116.523,
        "meta_ephemeris_type": 0,
        "meta_classification_type": "U",
        "meta_norad_cat_id": 66541,
        "meta_element_set_no": 999,
        "meta_rev_at_epoch": 459,
        "meta_bstar": 0.00081352399,
        "meta_mean_motion_dot": 0.00033854,
        "meta_mean_motion_ddot": 0,
        "tle_line1": "1 66541U 25265AB  25352.14533448  .00033854  00000+0  81352-3 0  9995",
        "tle_line2": "2 66541  43.0000  22.6644 0001148 243.5508 116.5230 15.40721005  4597"
      },
      "geometry": {
        "type": "Point",
        "coordinates": [
          -6.890724982128188,
          -22.649121646217786
        ]
      }
    },
    {
      "type": "Feature",
      "properties": {
        "norad_id": 66542,
        "name": "STARLINK-35833",
        "group": "last-30-days",
        "lat": 10.337334689037442,
        "lon": 30.88333789453693,
        "alt_km": 442.5943867299711,
        "timestamp": "2025-12-18T15:47:09.958666+00:00",
        "meta_object_name": "STARLINK-35833",
        "meta_object_id": "2025-265AC",
        "meta_epoch": "2025-12-18T08:00:01.999872",
        "meta_mean_motion": 15.40682961,
        "meta_eccentricity": 9.073e-05,
        "meta_inclination": 43.0006,
        "meta_ra_of_asc_node": 21.4652,
        "meta_arg_of_pericenter": 264.0216,
        "meta_mean_anomaly": 109.9081,
        "meta_ephemeris_type": 0,
        "meta_classification_type": "U",
        "meta_norad_cat_id": 66542,
        "meta_element_set_no": 999,
        "meta_rev_at_epoch": 589,
        "meta_bstar": 0.00036967667,
        "meta_mean_motion_dot": 0.00015161,
        "meta_mean_motion_ddot": 0,
        "tle_line1": "1 66542U 25265AC  25352.33335648  .00015161  00000+0  36968-3 0  9993",
        "tle_line2": "2 66542  43.0006  21.4652 0000907 264.0216 109.9081 15.40682961  5897"
      },
      "geometry": {
        "type": "Point",
        "coordinates": [
          30.88333789453693,
          10.337334689037442
        ]
      }
    },
    {
      "type": "Feature",
      "properties": {
        "norad_id": 66543,
        "name": "STARLINK-35315",
        "group": "last-30-days",
        "lat": 41.72541288273821,
        "lon": 92.57790171888884,
        "alt_km": 438.38152733621973,
        "timestamp": "2025-12-18T15:47:09.958677+00:00",
        "meta_object_name": "STARLINK-35315",
        "meta_object_id": "2025-265AD",
        "meta_epoch": "2025-12-18T08:00:01.999872",
        "meta_mean_motion": 15.40686895,
        "meta_eccentricity": 0.00016798,
        "meta_inclination": 42.9998,
        "meta_ra_of_asc_node": 21.314,
        "meta_arg_of_pericenter": 286.3109,
        "meta_mean_anomaly": 149.7794,
        "meta_ephemeris_type": 0,
        "meta_classification_type": "U",
        "meta_norad_cat_id": 66543,
        "meta_element_set_no": 999,
        "meta_rev_at_epoch": 578,
        "meta_bstar": 0.00062548072,
        "meta_mean_motion_dot": 0.00025902,
        "meta_mean_motion_ddot": 0,
        "tle_line1": "1 66543U 25265AD  25352.33335648  .00025902  00000+0  62548-3 0  9991",
        "tle_line2": "2 66543  42.9998  21.3140 0001679 286.3109 149.7794 15.40686895  5783"
      },
      "geometry": {
        "type": "Point",
        "coordinates": [
          92.57790171888884,
          41.72541288273821
        ]
      }
    }
  ]
}